norad_id,name,regime,epoch,line1,line2,inclination,eccentricity,mean_motion,raan,arg_pericenter,mean_anomaly
40349,O3B FM11,MEO,25287.70642029,1 40349U 14083B   25287.70642029 -.00000029  00000-0  00000-0 0  9194,2 40349   0.0496   5.0801 0003356 198.8042 156.1033  5.00115559197630,0.0496,0.0003356,5.00115559,5.0801,198.8042,156.1033
40349,O3B FM11,MEO,25288.50598244,1 40349U 14083B   25288.50598244 -.00000029  00000-0  00000-0 0  9237,2 40349   0.0496   5.1342 0003354 199.3249 155.5281  5.00115556197673,0.0496,0.0003354,5.00115556,5.1342,199.3249,155.5281
40349,O3B FM11,MEO,25288.70587286,1 40349U 14083B   25288.70587286 -.00000029  00000-0  00000-0 0  9244,2 40349   0.0497   5.1455 0003354 199.4646 155.3770  5.00115566197684,0.0497,0.0003354,5.00115566,5.1455,199.4646,155.377
40349,O3B FM11,MEO,25288.90576337,1 40349U 14083B   25288.90576337 -.00000029  00000-0  00000+0 0   252,2 40349   0.0497   5.1571 0003351 199.5316 155.2983  5.00115572197698,0.0497,0.0003351,5.00115572,5.1571,199.5316,155.2983
40349,O3B FM11,MEO,25289.50543500,1 40349U 14083B   25289.50543500 -.00000029  00000-0  00000+0 0   266,2 40349   0.0496   5.1101 0003193 199.7692 155.1086  5.00115611197720,0.0496,0.0003193,5.00115611,5.1101,199.7692,155.1086
40349,O3B FM11,MEO,25289.50543501,1 40349U 14083B   25289.50543501 -.00000029  00000-0  00000-0 0  9278,2 40349   0.0496   5.1101 0003193 199.7692 155.1086  5.00115611197720,0.0496,0.0003193,5.00115611,5.1101,199.7692,155.1086
40349,O3B FM11,MEO,25292.30390231,1 40349U 14083B   25292.30390231 -.00000026  00000-0  00000-0 0  9288,2 40349   0.0497   5.3361 0003376 202.9503 151.7001  5.00115612197867,0.0497,0.0003376,5.00115612,5.3361,202.9503,151.7001
40349,O3B FM11,MEO,25294.30280773,1 40349U 14083B   25294.30280773 -.00000023  00000-0  00000-0 0  9297,2 40349   0.0498   5.4292 0003344 204.9213 149.6361  5.00115636197969,0.0498,0.0003344,5.00115636,5.4292,204.9213,149.6361
40349,O3B FM11,MEO,25298.90028944,1 40349U 14083B   25298.90028944 -.00000019  00000-0  00000+0 0   292,2 40349   0.0500   5.5566 0003354 208.9771 145.4518  5.00115632198192,0.05,0.0003354,5.00115632,5.5566,208.9771,145.4518
40349,O3B FM11,MEO,25298.90028945,1 40349U 14083B   25298.90028945 -.00000019  00000-0  00000-0 0  9305,2 40349   0.0500   5.5566 0003354 208.9771 145.4518  5.00115632198192,0.05,0.0003354,5.00115632,5.5566,208.9771,145.4518
40349,O3B FM11,MEO,25299.30007050,1 40349U 14083B   25299.30007050 -.00000019  00000-0  00000-0 0  9315,2 40349   0.0501   5.5893 0003354 209.2518 145.1441  5.00115624198215,0.0501,0.0003354,5.00115624,5.5893,209.2518,145.1441
40349,O3B FM11,MEO,25302.29842780,1 40349U 14083B   25302.29842780 -.00000015  00000-0  00000+0 0   311,2 40349   0.0501   5.6913 0003367 212.0222 142.2700  5.00115585198365,0.0501,0.0003367,5.00115585,5.6913,212.0222,142.27
40349,O3B FM11,MEO,25302.89809942,1 40349U 14083B   25302.89809942 -.00000014  00000-0  00000-0 0  9342,2 40349   0.0501   5.6050 0003400 212.5911 141.7870  5.00115573198386,0.0501,0.00034,5.00115573,5.605,212.5911,141.787
40349,O3B FM11,MEO,25303.09799012,1 40349U 14083B   25303.09799012 -.00000014  00000-0  00000-0 0  9352,2 40349   0.0501   5.6158 0003401 212.7059 141.6613  5.00115556198397,0.0501,0.0003401,5.00115556,5.6158,212.7059,141.6613
40349,O3B FM11,MEO,25303.69766159,1 40349U 14083B   25303.69766159 -.00000013  00000-0  00000-0 0  9375,2 40349   0.0501   5.6401 0003410 213.2947 141.0479  5.00115552198424,0.0501,0.000341,5.00115552,5.6401,213.2947,141.0479
40349,O3B FM11,MEO,25304.49722382,1 40349U 14083B   25304.49722382 -.00000012  00000-0  00000+0 0   351,2 40349   0.0501   5.6633 0003409 214.0184 140.3007  5.00115531198461,0.0501,0.0003409,5.00115531,5.6633,214.0184,140.3007
40349,O3B FM11,MEO,25304.69711411,1 40349U 14083B   25304.69711411 -.00000012  00000-0  00000+0 0   365,2 40349   0.0501   5.6685 0003410 214.1732 140.1407  5.00115550198474,0.0501,0.000341,5.0011555,5.6685,214.1732,140.1407
40349,O3B FM11,MEO,25305.49667622,1 40349U 14083B   25305.49667622 -.00000011  00000-0  00000-0 0  9435,2 40349   0.0501   5.6869 0003411 214.8679 139.4274  5.00115542198515,0.0501,0.0003411,5.00115542,5.6869,214.8679,139.4274
40349,O3B FM11,MEO,25306.09634790,1 40349U 14083B   25306.09634790 -.00000011  00000-0  00000-0 0  9454,2 40349   0.0501   5.7185 0003412 215.3981 138.8656  5.00115529198545,0.0501,0.0003412,5.00115529,5.7185,215.3981,138.8656
40349,O3B FM11,MEO,25306.29623846,1 40349U 14083B   25306.29623846 -.00000011  00000-0  00000+0 0   412,2 40349   0.0501   5.7145 0003416 215.5622 138.7053  5.00115524198555,0.0501,0.0003416,5.00115524,5.7145,215.5622,138.7053
40349,O3B FM11,MEO,25307.69547185,1 40349U 14083B   25307.69547185 -.00000011  00000-0  00000+0 0   452,2 40349   0.0501   5.7445 0003415 216.6492 137.5879  5.00115537198629,0.0501,0.0003415,5.00115537,5.7445,216.6492,137.5879
40349,O3B FM11,MEO,25307.89536250,1 40349U 14083B   25307.89536250 -.00000011  00000-0  00000-0 0  9534,2 40349   0.0501   5.7419 0003416 216.8445 137.3951  5.00115525198638,0.0501,0.0003416,5.00115525,5.7419,216.8445,137.3951
40349,O3B FM11,MEO,25308.09525295,1 40349U 14083B   25308.09525295 -.00000011  00000-0  00000+0 0   466,2 40349   0.0501   5.7439 0003416 217.0184 137.2191  5.00115527198641,0.0501,0.0003416,5.00115527,5.7439,217.0184,137.2191
40349,O3B FM11,MEO,25308.09525296,1 40349U 14083B   25308.09525296 -.00000011  00000-0  00000-0 0  9546,2 40349   0.0501   5.7439 0003416 217.0184 137.2191  5.00115527198641,0.0501,0.0003416,5.00115527,5.7439,217.0184,137.2191
40349,O3B FM11,MEO,25308.89481488,1 40349U 14083B   25308.89481488 -.00000012  00000-0  00000-0 0  9550,2 40349   0.0502   5.8825 0003416 217.6470 136.4514  5.00115524198698,0.0502,0.0003416,5.00115524,5.8825,217.647,136.4514
40349,O3B FM11,MEO,25309.69437704,1 40349U 14083B   25309.69437704 -.00000013  00000-0  00000-0 0  9596,2 40349   0.0502   5.9147 0003411 218.0942 135.9715  5.00115504198730,0.0502,0.0003411,5.00115504,5.9147,218.0942,135.9715
40349,O3B FM11,MEO,25310.29404833,1 40349U 14083B   25310.29404833 -.00000014  00000-0  00000+0 0   503,2 40349   0.0502   5.9389 0003407 218.5309 135.5101  5.00115509198768,0.0502,0.0003407,5.00115509,5.9389,218.5309,135.5101
40349,O3B FM11,MEO,25310.29404834,1 40349U 14083B   25310.29404834 -.00000014  00000-0  00000-0 0  9616,2 40349   0.0502   5.9389 0003407 218.5309 135.5101  5.00115509198768,0.0502,0.0003407,5.00115509,5.9389,218.5309,135.5101
40349,O3B FM11,MEO,25311.49339066,1 40349U 14083B   25311.49339066 -.00000018  00000-0  00000+0 0   527,2 40349   0.0503   5.9740 0003424 220.3655 133.6385  5.00115527198824,0.0503,0.0003424,5.00115527,5.974,220.3655,133.6385
40349,O3B FM11,MEO,25311.69328112,1 40349U 14083B   25311.69328112 -.00000018  00000-0  00000+0 0   530,2 40349   0.0503   5.9801 0003426 220.6706 133.3269  5.00115523198839,0.0503,0.0003426,5.00115523,5.9801,220.6706,133.3269
40349,O3B FM11,MEO,25311.69328113,1 40349U 14083B   25311.69328113 -.00000018  00000-0  00000-0 0  9643,2 40349   0.0503   5.9801 0003426 220.6706 133.3269  5.00115523198839,0.0503,0.0003426,5.00115523,5.9801,220.6706,133.3269
40349,O3B FM11,MEO,25314.49174769,1 40349U 14083B   25314.49174769 -.00000024  00000-0  00000-0 0  9681,2 40349   0.0503   6.0591 0003431 223.6335 130.2816  5.00115506198974,0.0503,0.0003431,5.00115506,6.0591,223.6335,130.2816
40349,O3B FM11,MEO,25315.89098094,1 40349U 14083B   25315.89098094 -.00000025  00000-0  00000-0 0  9728,2 40349   0.0503   6.0932 0003432 223.4129 130.4678  5.00115547199045,0.0503,0.0003432,5.00115547,6.0932,223.4129,130.4678
40349,O3B FM11,MEO,25316.29076209,1 40349U 14083B   25316.29076209 -.00000025  00000-0  00000-0 0  9738,2 40349   0.0504   6.0692 0003512 229.1107 124.7908  5.00115508199068,0.0504,0.0003512,5.00115508,6.0692,229.1107,124.7908
40349,O3B FM11,MEO,25316.89043336,1 40349U 14083B   25316.89043336 -.00000025  00000-0  00000-0 0  9740,2 40349   0.0504   6.0749 0003480 226.7329 127.1642  5.00115564199091,0.0504,0.000348,5.00115564,6.0749,226.7329,127.1642
40349,O3B FM11,MEO,25317.09032402,1 40349U 14083B   25317.09032402 -.00000025  00000-0  00000-0 0  9756,2 40349   0.0504   6.0765 0003464 226.2612 127.6347  5.00115561199107,0.0504,0.0003464,5.00115561,6.0765,226.2612,127.6347
40349,O3B FM11,MEO,25317.49010507,1 40349U 14083B   25317.49010507 -.00000025  00000-0  00000+0 0   651,2 40349   0.0504   6.0678 0003470 227.6501 126.2539  5.00115562199120,0.0504,0.000347,5.00115562,6.0678,227.6501,126.2539
40349,O3B FM11,MEO,25317.88988625,1 40349U 14083B   25317.88988625 -.00000024  00000-0  00000-0 0  9793,2 40349   0.0503   6.0814 0003388 227.0741 126.8175  5.00115560199141,0.0503,0.0003388,5.0011556,6.0814,227.0741,126.8175
40349,O3B FM11,MEO,25317.88988629,1 40349U 14083B   25317.88988629 -.00000024  00000-0  00000-0 0  9786,2 40349   0.0503   6.0007 0003402 227.9612 126.0106  5.00115551199144,0.0503,0.0003402,5.00115551,6.0007,227.9612,126.0106
40349,O3B FM11,MEO,25318.48955797,1 40349U 14083B   25318.48955797 -.00000024  00000-0  00000+0 0   671,2 40349   0.0503   6.0651 0003392 227.9231 125.9847  5.00115563199170,0.0503,0.0003392,5.00115563,6.0651,227.9231,125.9847
40349,O3B FM11,MEO,25319.28912031,1 40349U 14083B   25319.28912031 -.00000023  00000-0  00000+0 0   707,2 40349   0.0501   6.1045 0003268 218.6009 135.2730  5.00115602199212,0.0501,0.0003268,5.00115602,6.1045,218.6009,135.273
40349,O3B FM11,MEO,25319.68890137,1 40349U 14083B   25319.68890137 -.00000022  00000-0  00000-0 0  9869,2 40349   0.0502   6.0404 0003351 226.7978 127.1360  5.00115586199231,0.0502,0.0003351,5.00115586,6.0404,226.7978,127.136
40349,O3B FM11,MEO,25320.28857354,1 40349U 14083B   25320.28857354 -.00000021  00000-0  00000+0 0   725,2 40349   0.0500   6.1071 0003222 207.4982 146.3794  5.00115500199261,0.05,0.0003222,5.001155,6.1071,207.4982,146.3794
